{"type": "FeatureCollection", "features": [{"type": "Feature", "properties": {"norad_id": 28054, "name": "DMSP 5D-3 F16 (USA 172)", "group": "weather", "lat": -71.78005308613653, "lon": 163.67024463983216, "alt_km": 848.0827846512302, "timestamp": "2025-12-20T22:39:10.291769+00:00", "meta": {"OBJECT_NAME": "DMSP 5D-3 F16 (USA 172)", "OBJECT_ID": "2003-048A", "EPOCH": "2025-12-20T13:30:12.716352", "MEAN_MOTION": 14.14426798, "ECCENTRICITY": 0.00062912, "INCLINATION": 99.0038, "RA_OF_ASC_NODE": 12.081, "ARG_OF_PERICENTER": 295.9709, "MEAN_ANOMALY": 178.0588, "EPHEMERIS_TYPE": 0, "CLASSIFICATION_TYPE": "U", "NORAD_CAT_ID": 28054, "ELEMENT_SET_NO": 999, "REV_AT_EPOCH": 14423, "BSTAR": 6.3744893e-05, "MEAN_MOTION_DOT": 7.7e-07, "MEAN_MOTION_DDOT": 0}, "tle": {"line1": "1 28054U 03048A   25354.56264718  .00000077  00000+0  63745-4 0  9994", "line2": "2 28054  99.0038  12.0810 0006291 295.9709 178.0588 14.14426798144238"}}, "geometry": {"type": "Point", "coordinates": [163.67024463983216, -71.78005308613653]}}, {"type": "Feature", "properties": {"norad_id": 28912, "name": "METEOSAT-9 (MSG-2)", "group": "weather", "lat": 7.688518257407738, "lon": 114.64017822403362, "alt_km": 36037.13576301846, "timestamp": "2025-12-20T22:39:10.291819+00:00", "meta": {"OBJECT_NAME": "METEOSAT-9 (MSG-2)", "OBJECT_ID": "2005-049B", "EPOCH": "2025-12-18T20:21:29.033280", "MEAN_MOTION": 1.00264866, "ECCENTRICITY": 0.0082047, "INCLINATION": 8.9417, "RA_OF_ASC_NODE": 55.9014, "ARG_OF_PERICENTER": 282.314, "MEAN_ANOMALY": 99.6592, "EPHEMERIS_TYPE": 0, "CLASSIFICATION_TYPE": "U", "NORAD_CAT_ID": 28912, "ELEMENT_SET_NO": 999, "REV_AT_EPOCH": 519, "BSTAR": 0, "MEAN_MOTION_DOT": 1.45e-06, "MEAN_MOTION_DDOT": 0}, "tle": {"line1": "1 28912U 05049B   25352.84825270  .00000145  00000+0  00000+0 0  9991", "line2": "2 28912   8.9417  55.9014 0082047 282.3140  99.6592  1.00264866  5196"}}, "geometry": {"type": "Point", "coordinates": [114.64017822403362, 7.688518257407738]}}, {"type": "Feature", "properties": {"norad_id": 29522, "name": "DMSP 5D-3 F17 (USA 191)", "group": "weather", "lat": -28.67834944026222, "lon": 175.33570758276147, "alt_km": 841.4272287172962, "timestamp": "2025-12-20T22:39:10.291834+00:00", "meta": {"OBJECT_NAME": "DMSP 5D-3 F17 (USA 191)", "OBJECT_ID": "2006-050A", "EPOCH": "2025-12-20T13:10:57.032544", "MEAN_MOTION": 14.14922834, "ECCENTRICITY": 0.00097276, "INCLINATION": 98.739, "RA_OF_ASC_NODE": 359.7757, "ARG_OF_PERICENTER": 201.3202, "MEAN_ANOMALY": 158.7567, "EPHEMERIS_TYPE": 0, "CLASSIFICATION_TYPE": "U", "NORAD_CAT_ID": 29522, "ELEMENT_SET_NO": 999, "REV_AT_EPOCH": 98715, "BSTAR": 8.4958301e-05, "MEAN_MOTION_DOT": 1.21e-06, "MEAN_MOTION_DDOT": 0}, "tle": {"line1": "1 29522U 06050A   25354.54927121  .00000121  00000+0  84958-4 0  9992", "line2": "2 29522  98.7390 359.7757 0009727 201.3202 158.7567 14.14922834987153"}}, "geometry": {"type": "Point", "coordinates": [175.33570758276147, -28.67834944026222]}}, {"type": "Feature", "properties": {"norad_id": 32958, "name": "FENGYUN 3A", "group": "weather", "lat": 57.36785850756721, "lon": -79.48885814155234, "alt_km": 825.2898523300819, "timestamp": "2025-12-20T22:39:10.291846+00:00", "meta": {"OBJECT_NAME": "FENGYUN 3A", "OBJECT_ID": "2008-026A", "EPOCH": "2025-12-20T10:32:12.630912", "MEAN_MOTION": 14.19516831, "ECCENTRICITY": 0.00076671, "INCLINATION": 98.6707, "RA_OF_ASC_NODE": 293.8039, "ARG_OF_PERICENTER": 285.6949, "MEAN_ANOMALY": 74.3382, "EPHEMERIS_TYPE": 0, "CLASSIFICATION_TYPE": "U", "NORAD_CAT_ID": 32958, "ELEMENT_SET_NO": 999, "REV_AT_EPOCH": 91004, "BSTAR": 5.4616037e-05, "MEAN_MOTION_DOT": 7.2e-07, "MEAN_MOTION_DDOT": 0}, "tle": {"line1": "1 32958U 08026A   25354.43903508  .00000072  00000+0  54616-4 0  9998", "line2": "2 32958  98.6707 293.8039 0007667 285.6949  74.3382 14.19516831910049"}}, "geometry": {"type": "Point", "coordinates": [-79.48885814155234, 57.36785850756721]}}, {"type": "Feature", "properties": {"norad_id": 35491, "name": "GOES 14", "group": "weather", "lat": -0.9475320450758825, "lon": -45.37628606512093, "alt_km": 35833.80609620266, "timestamp": "2025-12-20T22:39:10.291859+00:00", "meta": {"OBJECT_NAME": "GOES 14", "OBJECT_ID": "2009-033A", "EPOCH": "2025-12-20T10:08:52.240704", "MEAN_MOTION": 1.00096886, "ECCENTRICITY": 5.174e-05, "INCLINATION": 1.2226, "RA_OF_ASC_NODE": 85.3287, "ARG_OF_PERICENTER": 181.94, "MEAN_ANOMALY": 219.6031, "EPHEMERIS_TYPE": 0, "CLASSIFICATION_TYPE": "U", "NORAD_CAT_ID": 35491, "ELEMENT_SET_NO": 999, "REV_AT_EPOCH": 480, "BSTAR": 0, "MEAN_MOTION_DOT": 2.1e-07, "MEAN_MOTION_DDOT": 0}, "tle": {"line1": "1 35491U 09033A   25354.42282686  .00000021  00000+0  00000+0 0  9995", "line2": "2 35491   1.2226  85.3287 0000517 181.9400 219.6031  1.00096886  4808"}}, "geometry": {"type": "Point", "coordinates": [-45.37628606512093, -0.9475320450758825]}}, {"type": "Feature", "properties": {"norad_id": 35951, "name": "DMSP 5D-3 F18 (USA 210)", "group": "weather", "lat": 70.03518350164177, "lon": -54.199349886400455, "alt_km": 828.911169525597, "timestamp": "2025-12-20T22:39:10.291870+00:00", "meta": {"OBJECT_NAME": "DMSP 5D-3 F18 (USA 210)", "OBJECT_ID": "2009-057A", "EPOCH": "2025-12-20T13:49:39.567360", "MEAN_MOTION": 14.14774016, "ECCENTRICITY": 0.00118664, "INCLINATION": 98.8842, "RA_OF_ASC_NODE": 330.938, "ARG_OF_PERICENTER": 42.1358, "MEAN_ANOMALY": 318.0725, "EPHEMERIS_TYPE": 0, "CLASSIFICATION_TYPE": "U", "NORAD_CAT_ID": 35951, "ELEMENT_SET_NO": 999, "REV_AT_EPOCH": 83433, "BSTAR": 0.00012720723, "MEAN_MOTION_DOT": 2.01e-06, "MEAN_MOTION_DDOT": 0}, "tle": {"line1": "1 35951U 09057A   25354.57615240  .00000201  00000+0  12721-3 0  9991", "line2": "2 35951  98.8842 330.9380 0011866  42.1358 318.0725 14.14774016834337"}}, "geometry": {"type": "Point", "coordinates": [-54.199349886400455, 70.03518350164177]}}, {"type": "Feature", "properties": {"norad_id": 36411, "name": "EWS-G2 (GOES 15)", "group": "weather", "lat": 0.6071869617083356, "lon": 130.8704177217491, "alt_km": 35801.98883940627, "timestamp": "2025-12-20T22:39:10.291882+00:00", "meta": {"OBJECT_NAME": "EWS-G2 (GOES 15)", "OBJECT_ID": "2010-008A", "EPOCH": "2025-12-20T15:10:42.642336", "MEAN_MOTION": 1.00271052, "ECCENTRICITY": 0.00054654, "INCLINATION": 0.8321, "RA_OF_ASC_NODE": 86.0835, "ARG_OF_PERICENTER": 177.7538, "MEAN_ANOMALY": 114.6687, "EPHEMERIS_TYPE": 0, "CLASSIFICATION_TYPE": "U", "NORAD_CAT_ID": 36411, "ELEMENT_SET_NO": 999, "REV_AT_EPOCH": 5784, "BSTAR": 0, "MEAN_MOTION_DOT": 6.1e-07, "MEAN_MOTION_DDOT": 0}, "tle": {"line1": "1 36411U 10008A   25354.63243799  .00000061  00000+0  00000+0 0  9991", "line2": "2 36411   0.8321  86.0835 0005465 177.7538 114.6687  1.00271052 57844"}}, "geometry": {"type": "Point", "coordinates": [130.8704177217491, 0.6071869617083356]}}, {"type": "Feature", "properties": {"norad_id": 36744, "name": "COMS 1", "group": "weather", "lat": 3.7762932756658474, "lon": -162.19719408788907, "alt_km": 35785.13310086949, "timestamp": "2025-12-20T22:39:10.291893+00:00", "meta": {"OBJECT_NAME": "COMS 1", "OBJECT_ID": "2010-032A", "EPOCH": "2025-12-19T21:07:51.684384", "MEAN_MOTION": 1.00272527, "ECCENTRICITY": 6.76e-05, "INCLINATION": 4.3565, "RA_OF_ASC_NODE": 77.9191, "ARG_OF_PERICENTER": 201.7497, "MEAN_ANOMALY": 254.194, "EPHEMERIS_TYPE": 0, "CLASSIFICATION_TYPE": "U", "NORAD_CAT_ID": 36744, "ELEMENT_SET_NO": 999, "REV_AT_EPOCH": 4929, "BSTAR": 0, "MEAN_MOTION_DOT": -3.23e-06, "MEAN_MOTION_DDOT": 0}, "tle": {"line1": "1 36744U 10032A   25353.88045931 -.00000323  00000+0  00000+0 0  9993", "line2": "2 36744   4.3565  77.9191 0000676 201.7497 254.1940  1.00272527 49297"}}, "geometry": {"type": "Point", "coordinates": [-162.19719408788907, 3.7762932756658474]}}, {"type": "Feature", "properties": {"norad_id": 37214, "name": "FENGYUN 3B", "group": "weather", "lat": 36.80731449391513, "lon": 28.175395784427014, "alt_km": 833.1912753079623, "timestamp": "2025-12-20T22:39:10.291904+00:00", "meta": {"OBJECT_NAME": "FENGYUN 3B", "OBJECT_ID": "2010-059A", "EPOCH": "2025-12-20T14:42:45.403200", "MEAN_MOTION": 14.14792695, "ECCENTRICITY": 0.00217071, "INCLINATION": 98.99, "RA_OF_ASC_NODE": 34.6455, "ARG_OF_PERICENTER": 335.3857, "MEAN_ANOMALY": 177.6899, "EPHEMERIS_TYPE": 0, "CLASSIFICATION_TYPE": "U", "NORAD_CAT_ID": 37214, "ELEMENT_SET_NO": 999, "REV_AT_EPOCH": 78217, "BSTAR": 0.00010990663, "MEAN_MOTION_DOT": 1.67e-06, "MEAN_MOTION_DDOT": 0}, "tle": {"line1": "1 37214U 10059A   25354.61302550  .00000167  00000+0  10991-3 0  9999", "line2": "2 37214  98.9900  34.6455 0021707 335.3857 177.6899 14.14792695782172"}}, "geometry": {"type": "Point", "coordinates": [28.175395784427014, 36.80731449391513]}}, {"type": "Feature", "properties": {"norad_id": 37849, "name": "SUOMI NPP", "group": "weather", "lat": 16.861789101631334, "lon": -70.47287258906793, "alt_km": 827.3365441290343, "timestamp": "2025-12-20T22:39:10.291914+00:00", "meta": {"OBJECT_NAME": "SUOMI NPP", "OBJECT_ID": "2011-061A", "EPOCH": "2025-12-17T23:31:21.474624", "MEAN_MOTION": 14.19515682, "ECCENTRICITY": 0.00023932, "INCLINATION": 98.7779, "RA_OF_ASC_NODE": 289.2746, "ARG_OF_PERICENTER": 111.1248, "MEAN_ANOMALY": 249.0184, "EPHEMERIS_TYPE": 0, "CLASSIFICATION_TYPE": "U", "NORAD_CAT_ID": 37849, "ELEMENT_SET_NO": 999, "REV_AT_EPOCH": 73273, "BSTAR": 4.8615036e-05, "MEAN_MOTION_DOT": 5.8e-07, "MEAN_MOTION_DDOT": 0}, "tle": {"line1": "1 37849U 11061A   25351.98010966  .00000058  00000+0  48615-4 0  9995", "line2": "2 37849  98.7779 289.2746 0002393 111.1248 249.0184 14.19515682732735"}}, "geometry": {"type": "Point", "coordinates": [-70.47287258906793, 16.861789101631334]}}]}